{"fetched_at":"2026-07-23T07:06:05.820Z","source":"https://celestrak.org/NORAD/elements/gp.php?NAME=STRIX&FORMAT=JSON","constellation":"synspective","records":[{"OBJECT_NAME":"STRIX-1","OBJECT_ID":"2022-113A","EPOCH":"2026-07-22T23:21:55.424160","CLASSIFICATION_TYPE":"U","MEAN_MOTION":15.41279309,"ECCENTRICITY":0.00055606,"INCLINATION":97.4473,"RA_OF_ASC_NODE":266.6696,"ARG_OF_PERICENTER":112.3353,"MEAN_ANOMALY":247.8483,"EPHEMERIS_TYPE":0,"NORAD_CAT_ID":53815,"ELEMENT_SET_NO":999,"REV_AT_EPOCH":21295,"BSTAR":0.00072056143,"MEAN_MOTION_DOT":0.00029994,"MEAN_MOTION_DDOT":0},{"OBJECT_NAME":"STRIX-3","OBJECT_ID":"2024-047A","EPOCH":"2026-07-22T22:23:14.556768","CLASSIFICATION_TYPE":"U","MEAN_MOTION":15.19903235,"ECCENTRICITY":0.0011175,"INCLINATION":97.6641,"RA_OF_ASC_NODE":180.1529,"ARG_OF_PERICENTER":304.9826,"MEAN_ANOMALY":55.0358,"EPHEMERIS_TYPE":0,"NORAD_CAT_ID":59224,"ELEMENT_SET_NO":999,"REV_AT_EPOCH":13017,"BSTAR":0.00046611533,"MEAN_MOTION_DOT":0.00009961,"MEAN_MOTION_DDOT":0},{"OBJECT_NAME":"STRIX-4","OBJECT_ID":"2024-137A","EPOCH":"2026-07-22T23:43:02.123328","CLASSIFICATION_TYPE":"U","MEAN_MOTION":15.33532923,"ECCENTRICITY":0.00173266,"INCLINATION":43.0158,"RA_OF_ASC_NODE":81.1716,"ARG_OF_PERICENTER":185.3641,"MEAN_ANOMALY":174.703,"EPHEMERIS_TYPE":0,"NORAD_CAT_ID":60352,"ELEMENT_SET_NO":999,"REV_AT_EPOCH":10951,"BSTAR":0.00071640552,"MEAN_MOTION_DOT":0.00023621,"MEAN_MOTION_DDOT":0},{"OBJECT_NAME":"STRIX-2","OBJECT_ID":"2024-248A","EPOCH":"2026-07-22T22:40:58.513152","CLASSIFICATION_TYPE":"U","MEAN_MOTION":15.09252068,"ECCENTRICITY":0.00142874,"INCLINATION":97.6302,"RA_OF_ASC_NODE":159.3893,"ARG_OF_PERICENTER":206.3549,"MEAN_ANOMALY":153.6954,"EPHEMERIS_TYPE":0,"NORAD_CAT_ID":62406,"ELEMENT_SET_NO":999,"REV_AT_EPOCH":8698,"BSTAR":0.00042178642,"MEAN_MOTION_DOT":0.00006667,"MEAN_MOTION_DDOT":0},{"OBJECT_NAME":"STRIX-5","OBJECT_ID":"2025-229A","EPOCH":"2026-07-22T10:04:09.832800","CLASSIFICATION_TYPE":"U","MEAN_MOTION":15.04629127,"ECCENTRICITY":0.00380309,"INCLINATION":41.9282,"RA_OF_ASC_NODE":91.9958,"ARG_OF_PERICENTER":283.2534,"MEAN_ANOMALY":76.4052,"EPHEMERIS_TYPE":0,"NORAD_CAT_ID":65971,"ELEMENT_SET_NO":999,"REV_AT_EPOCH":4228,"BSTAR":0.00027790308,"MEAN_MOTION_DOT":0.00003839,"MEAN_MOTION_DDOT":0},{"OBJECT_NAME":"STRIX-6","OBJECT_ID":"2026-056A","EPOCH":"2026-07-22T05:30:19.721952","CLASSIFICATION_TYPE":"U","MEAN_MOTION":15.00349853,"ECCENTRICITY":0.00166026,"INCLINATION":50.2824,"RA_OF_ASC_NODE":184.121,"ARG_OF_PERICENTER":18.2232,"MEAN_ANOMALY":341.9309,"EPHEMERIS_TYPE":0,"NORAD_CAT_ID":68291,"ELEMENT_SET_NO":999,"REV_AT_EPOCH":1853,"BSTAR":0.00016146071,"MEAN_MOTION_DOT":0.00001787,"MEAN_MOTION_DDOT":0},{"OBJECT_NAME":"STRIX-7","OBJECT_ID":"2026-112A","EPOCH":"2026-07-22T19:58:13.988640","CLASSIFICATION_TYPE":"U","MEAN_MOTION":15.01649515,"ECCENTRICITY":0.00253775,"INCLINATION":44.9085,"RA_OF_ASC_NODE":5.2047,"ARG_OF_PERICENTER":248.9538,"MEAN_ANOMALY":110.8619,"EPHEMERIS_TYPE":0,"NORAD_CAT_ID":69177,"ELEMENT_SET_NO":999,"REV_AT_EPOCH":923,"BSTAR":0.00033333912,"MEAN_MOTION_DOT":0.00004192,"MEAN_MOTION_DDOT":0},{"OBJECT_NAME":"STRIX-8","OBJECT_ID":"2026-146A","EPOCH":"2026-07-22T18:53:36.135456","CLASSIFICATION_TYPE":"U","MEAN_MOTION":15.04481887,"ECCENTRICITY":0.00063564,"INCLINATION":41.9902,"RA_OF_ASC_NODE":331.0352,"ARG_OF_PERICENTER":79.5982,"MEAN_ANOMALY":280.5561,"EPHEMERIS_TYPE":0,"NORAD_CAT_ID":69701,"ELEMENT_SET_NO":999,"REV_AT_EPOCH":392,"BSTAR":0.00033156897,"MEAN_MOTION_DOT":0.00004533,"MEAN_MOTION_DDOT":0}]}
