{"epoch":1784799577,"count":18318,"objects":[{"id":"53815","name":"STRIX-1","type":"PAYLOAD","l1":"1 53815U 22113A   26203.97355815  .00029994  00000-0  72056-3 0  9993","l2":"2 53815  97.4473 266.6696 0005561 112.3353 247.8483 15.41279309212950"},{"id":"59224","name":"STRIX-3","type":"PAYLOAD","l1":"1 59224U 24047A   26203.93280737  .00009961  00000-0  46612-3 0  9998","l2":"2 59224  97.6641 180.1529 0011175 304.9826  55.0358 15.19903235130176"},{"id":"60352","name":"STRIX-4","type":"PAYLOAD","l1":"1 60352U 24137A   26203.98821902  .00023621  00000-0  71641-3 0  9991","l2":"2 60352  43.0158  81.1716 0017327 185.3641 174.7030 15.33532923109515"},{"id":"62406","name":"STRIX 2","type":"PAYLOAD","l1":"1 62406U 24248A   26203.94512168  .00006667  00000-0  42179-3 0  9998","l2":"2 62406  97.6302 159.3893 0014287 206.3549 153.6954 15.09252068 86988"},{"id":"65971","name":"STRIX-5","type":"PAYLOAD","l1":"1 65971U 25229A   26203.41955825  .00003839  00000-0  27790-3 0  9991","l2":"2 65971  41.9282  91.9958 0038031 283.2534  76.4052 15.04629127 42286"},{"id":"68291","name":"STRIX-6","type":"PAYLOAD","l1":"1 68291U 26056A   26203.22939493  .00001787  00000-0  16146-3 0  9993","l2":"2 68291  50.2824 184.1210 0016603  18.2232 341.9309 15.00349853 18534"},{"id":"69177","name":"STRIX-7","type":"PAYLOAD","l1":"1 69177U 26112A   26203.83210635  .00004192  00000-0  33334-3 0  9998","l2":"2 69177  44.9085   5.2047 0025378 248.9538 110.8619 15.01649515  9231"},{"id":"69701","name":"STRIX-8","type":"PAYLOAD","l1":"1 69701U 26146A   26203.78722379  .00004533  00000-0  33157-3 0  9997","l2":"2 69701  41.9902 331.0352 0006356  79.5982 280.5561 15.04481887  3924"}]}